OBJECT_NAME,OBJECT_ID,EPOCH,MEAN_MOTION,ECCENTRICITY,INCLINATION,RA_OF_ASC_NODE,ARG_OF_PERICENTER,MEAN_ANOMALY,EPHEMERIS_TYPE,CLASSIFICATION_TYPE,NORAD_CAT_ID,ELEMENT_SET_NO,REV_AT_EPOCH,BSTAR,MEAN_MOTION_DOT,MEAN_MOTION_DDOT
GEOSCAN 3 (RS92S3),2025-155T,2026-07-01T03:18:20.227968,15.35865194,.0008251,97.4542,152.1814,122.8770,237.3268,0,U,64893,999,8299,.67439E-3,.23524E-3,0
INNOSAT 3 (RS92S0),2025-155U,2026-07-01T04:17:49.990848,15.44841140,.0008048,97.4490,154.0193,120.6116,239.5927,0,U,64894,999,8312,.11073E-2,.52171E-3,0
KNACKSAT-2,1998-067XZ,2026-06-30T08:24:10.954656,15.61112165,.00084933,51.6260,228.2118,273.6004,86.4018,0,U,67683,999,2233,.45592226E-3,.38944E-3,0
