GEOSCAN 3 (RS92S3)      
1 64893U 25155T   26182.13773412  .00023524  00000+0  67439-3 0  9992
2 64893  97.4542 152.1814 0008251 122.8770 237.3268 15.35865194 82994
INNOSAT 3 (RS92S0)      
1 64894U 25155U   26182.17905082  .00052171  00000+0  11073-2 0  9999
2 64894  97.4490 154.0193 0008048 120.6116 239.5927 15.44841140 83129
KNACKSAT-2              
1 67683U 98067XZ  26181.35012679  .00038944  00000+0  45592-3 0  9996
2 67683  51.6260 228.2118 0008493 273.6004  86.4018 15.61112165 22338
